[{"OBJECT_NAME":"STARLINK-3860","OBJECT_ID":"2022-049AC","EPOCH":"2026-03-09T22:15:10.889568","MEAN_MOTION":15.0883788,"ECCENTRICITY":0.00013895,"INCLINATION":53.2184,"RA_OF_ASC_NODE":48.0532,"ARG_OF_PERICENTER":88.1167,"MEAN_ANOMALY":271.9985,"EPHEMERIS_TYPE":0,"CLASSIFICATION_TYPE":"U","NORAD_CAT_ID":52477,"ELEMENT_SET_NO":999,"REV_AT_EPOCH":21366,"BSTAR":4.9501251e-5,"MEAN_MOTION_DOT":5.0e-6,"MEAN_MOTION_DDOT":0},{"OBJECT_NAME":"RAAF M1","OBJECT_ID":"2018-099X","EPOCH":"2026-03-09T15:51:10.230048","MEAN_MOTION":15.07065376,"ECCENTRICITY":0.00134971,"INCLINATION":97.4534,"RA_OF_ASC_NODE":114.8325,"ARG_OF_PERICENTER":21.6261,"MEAN_ANOMALY":338.5534,"EPHEMERIS_TYPE":0,"CLASSIFICATION_TYPE":"U","NORAD_CAT_ID":43779,"ELEMENT_SET_NO":999,"REV_AT_EPOCH":39714,"BSTAR":0.00026511092,"MEAN_MOTION_DOT":3.923e-5,"MEAN_MOTION_DDOT":0}]
